{"type": "FeatureCollection", "features": [ {"type": "Feature", "properties": {"norad_id": 30396, "name": "FENGYUN 1C DEB", "group": "fengyun-1c-debris", "lat": -26.799431001026157, "lon": 179.64153854467077, "alt_km": 985.8744118631221, "timestamp": "2025-12-26T16:33:55.847756+00:00", "meta": {"OBJECT_NAME": "FENGYUN 1C DEB", "OBJECT_ID": "1999-025ADK", "EPOCH": "2025-12-26T06:59:54.203712", "MEAN_MOTION": 13.87172979, "ECCENTRICITY": 0.0135253, "INCLINATION": 98.2241, "RA_OF_ASC_NODE": 3.4798, "ARG_OF_PERICENTER": 92.496, "MEAN_ANOMALY": 283.5078, "EPHEMERIS_TYPE": 0, "CLASSIFICATION_TYPE": "U", "NORAD_CAT_ID": 30396, "ELEMENT_SET_NO": 999, "REV_AT_EPOCH": 95767, "BSTAR": 0.00011967467, "MEAN_MOTION_DOT": 1.16e-06, "MEAN_MOTION_DDOT": 0}, "tle": {"line1": "1 30396U 99025ADK 25360.29159958  .00000116  00000+0  11967-3 0  9994", "line2": "2 30396  98.2241   3.4798 0135253  92.4960 283.5078 13.87172979957670"}}, "geometry": {"type": "Point", "coordinates": [179.64153854467077, -26.799431001026157]}}, {"type": "Feature", "properties": {"norad_id": 30397, "name": "FENGYUN 1C DEB", "group": "fengyun-1c-debris", "lat": -55.494405514473854, "lon": 160.1662486882063, "alt_km": 940.760402335739, "timestamp": "2025-12-26T16:33:55.847765+00:00", "meta": {"OBJECT_NAME": "FENGYUN 1C DEB", "OBJECT_ID": "1999-025ADL", "EPOCH": "2025-12-26T00:13:24.888576", "MEAN_MOTION": 13.98630611, "ECCENTRICITY": 0.01494532, "INCLINATION": 98.4063, "RA_OF_ASC_NODE": 147.1196, "ARG_OF_PERICENTER": 55.2673, "MEAN_ANOMALY": 63.4679, "EPHEMERIS_TYPE": 0, "CLASSIFICATION_TYPE": "U", "NORAD_CAT_ID": 30397, "ELEMENT_SET_NO": 999, "REV_AT_EPOCH": 95950, "BSTAR": 0.0011673483, "MEAN_MOTION_DOT": 1.806e-05, "MEAN_MOTION_DDOT": 0}, "tle": {"line1": "1 30397U 99025ADL 25360.00931584  .00001806  00000+0  11673-2 0  9997", "line2": "2 30397  98.4063 147.1196 0149453  55.2673  63.4679 13.98630611959508"}}, "geometry": {"type": "Point", "coordinates": [160.1662486882063, -55.494405514473854]}}, {"type": "Feature", "properties": {"norad_id": 30398, "name": "FENGYUN 1C DEB", "group": "fengyun-1c-debris", "lat": 78.991636463557, "lon": -164.15321887622744, "alt_km": 1087.2077358474335, "timestamp": "2025-12-26T16:33:55.847774+00:00", "meta": {"OBJECT_NAME": "FENGYUN 1C DEB", "OBJECT_ID": "1999-025ADM", "EPOCH": "2025-12-25T15:54:26.136000", "MEAN_MOTION": 13.78710932, "ECCENTRICITY": 0.0172427, "INCLINATION": 99.7144, "RA_OF_ASC_NODE": 256.5043, "ARG_OF_PERICENTER": 262.2724, "MEAN_ANOMALY": 125.9122, "EPHEMERIS_TYPE": 0, "CLASSIFICATION_TYPE": "U", "NORAD_CAT_ID": 30398, "ELEMENT_SET_NO": 999, "REV_AT_EPOCH": 94935, "BSTAR": 0.00044204, "MEAN_MOTION_DOT": 4.53e-06, "MEAN_MOTION_DDOT": 0}, "tle": {"line1": "1 30398U 99025ADM 25359.66280250  .00000453  00000+0  44204-3 0  9999", "line2": "2 30398  99.7144 256.5043 0172427 262.2724 125.9122 13.78710932949355"}}, "geometry": {"type": "Point", "coordinates": [-164.15321887622744, 78.991636463557]}}, {"type": "Feature", "properties": {"norad_id": 30400, "name": "FENGYUN 1C DEB", "group": "fengyun-1c-debris", "lat": 45.41766084880852, "lon": -80.94304642109707, "alt_km": 904.8632403959446, "timestamp": "2025-12-26T16:33:55.847783+00:00", "meta": {"OBJECT_NAME": "FENGYUN 1C DEB", "OBJECT_ID": "1999-025ADP", "EPOCH": "2025-12-26T06:55:41.061216", "MEAN_MOTION": 14.10207872, "ECCENTRICITY": 0.02252846, "INCLINATION": 99.1561, "RA_OF_ASC_NODE": 288.0667, "ARG_OF_PERICENTER": 298.2133, "MEAN_ANOMALY": 228.0834, "EPHEMERIS_TYPE": 0, "CLASSIFICATION_TYPE": "U", "NORAD_CAT_ID": 30400, "ELEMENT_SET_NO": 999, "REV_AT_EPOCH": 95705, "BSTAR": 0.0040178028, "MEAN_MOTION_DOT": 8.973e-05, "MEAN_MOTION_DDOT": 0}, "tle": {"line1": "1 30400U 99025ADP 25360.28866969  .00008973  00000+0  40178-2 0  9990", "line2": "2 30400  99.1561 288.0667 0225284 298.2133 228.0834 14.10207872957053"}}, "geometry": {"type": "Point", "coordinates": [-80.94304642109707, 45.41766084880852]}}, {"type": "Feature", "properties": {"norad_id": 30401, "name": "FENGYUN 1C DEB", "group": "fengyun-1c-debris", "lat": -63.1677045534088, "lon": 39.7765998276995, "alt_km": 877.0064703409462, "timestamp": "2025-12-26T16:33:55.847792+00:00", "meta": {"OBJECT_NAME": "FENGYUN 1C DEB", "OBJECT_ID": "1999-025ADQ", "EPOCH": "2025-12-26T01:58:43.885632", "MEAN_MOTION": 14.28001633, "ECCENTRICITY": 0.01081454, "INCLINATION": 98.9465, "RA_OF_ASC_NODE": 237.2988, "ARG_OF_PERICENTER": 89.1085, "MEAN_ANOMALY": 272.2484, "EPHEMERIS_TYPE": 0, "CLASSIFICATION_TYPE": "U", "NORAD_CAT_ID": 30401, "ELEMENT_SET_NO": 999, "REV_AT_EPOCH": 98494, "BSTAR": 0.00014396766, "MEAN_MOTION_DOT": 3.35e-06, "MEAN_MOTION_DDOT": 0}, "tle": {"line1": "1 30401U 99025ADQ 25360.08245238  .00000335  00000+0  14397-3 0  9998", "line2": "2 30401  98.9465 237.2988 0108145  89.1085 272.2484 14.28001633984941"}}, "geometry": {"type": "Point", "coordinates": [39.7765998276995, -63.1677045534088]}}, {"type": "Feature", "properties": {"norad_id": 30403, "name": "FENGYUN 1C DEB", "group": "fengyun-1c-debris", "lat": 79.94226482586902, "lon": -36.431842166009076, "alt_km": 832.5233026424839, "timestamp": "2025-12-26T16:33:55.847801+00:00", "meta": {"OBJECT_NAME": "FENGYUN 1C DEB", "OBJECT_ID": "1999-025ADS", "EPOCH": "2025-12-26T04:18:06.826752", "MEAN_MOTION": 14.21636881, "ECCENTRICITY": 0.00744922, "INCLINATION": 99.0585, "RA_OF_ASC_NODE": 78.9573, "ARG_OF_PERICENTER": 343.3781, "MEAN_ANOMALY": 16.4955, "EPHEMERIS_TYPE": 0, "CLASSIFICATION_TYPE": "U", "NORAD_CAT_ID": 30403, "ELEMENT_SET_NO": 999, "REV_AT_EPOCH": 96997, "BSTAR": 0.0018653245, "MEAN_MOTION_DOT": 4.165e-05, "MEAN_MOTION_DDOT": 0}, "tle": {"line1": "1 30403U 99025ADS 25360.17924568  .00004165  00000+0  18653-2 0  9993", "line2": "2 30403  99.0585  78.9573 0074492 343.3781  16.4955 14.21636881969972"}}, "geometry": {"type": "Point", "coordinates": [-36.431842166009076, 79.94226482586902]}}, {"type": "Feature", "properties": {"norad_id": 30404, "name": "FENGYUN 1C DEB", "group": "fengyun-1c-debris", "lat": 73.0629068233664, "lon": -53.341500398033176, "alt_km": 840.71608457191, "timestamp": "2025-12-26T16:33:55.847810+00:00", "meta": {"OBJECT_NAME": "FENGYUN 1C DEB", "OBJECT_ID": "1999-025ADT", "EPOCH": "2025-12-19T23:54:32.428224", "MEAN_MOTION": 13.34354549, "ECCENTRICITY": 0.03762973, "INCLINATION": 99.8326, "RA_OF_ASC_NODE": 85.5019, "ARG_OF_PERICENTER": 119.2039, "MEAN_ANOMALY": 244.7273, "EPHEMERIS_TYPE": 0, "CLASSIFICATION_TYPE": "U", "NORAD_CAT_ID": 30404, "ELEMENT_SET_NO": 999, "REV_AT_EPOCH": 58133, "BSTAR": 0.00058436057, "MEAN_MOTION_DOT": 3.95e-06, "MEAN_MOTION_DDOT": 0}, "tle": {"line1": "1 30404U 99025ADT 25353.99620866  .00000395  00000+0  58436-3 0  9995", "line2": "2 30404  99.8326  85.5019 0376297 119.2039 244.7273 13.34354549581337"}}, "geometry": {"type": "Point", "coordinates": [-53.341500398033176, 73.0629068233664]}}, {"type": "Feature", "properties": {"norad_id": 30405, "name": "FENGYUN 1C DEB", "group": "fengyun-1c-debris", "lat": -75.93083367415394, "lon": 132.9341293723587, "alt_km": 837.7670041952233, "timestamp": "2025-12-26T16:33:55.847818+00:00", "meta": {"OBJECT_NAME": "FENGYUN 1C DEB", "OBJECT_ID": "1999-025ADU", "EPOCH": "2025-12-25T22:44:19.742208", "MEAN_MOTION": 14.29021708, "ECCENTRICITY": 0.0050777, "INCLINATION": 98.7927, "RA_OF_ASC_NODE": 94.0442, "ARG_OF_PERICENTER": 116.223, "MEAN_ANOMALY": 305.6404, "EPHEMERIS_TYPE": 0, "CLASSIFICATION_TYPE": "U", "NORAD_CAT_ID": 30405, "ELEMENT_SET_NO": 999, "REV_AT_EPOCH": 97584, "BSTAR": 0.0015743, "MEAN_MOTION_DOT": 3.997e-05, "MEAN_MOTION_DDOT": 0}, "tle": {"line1": "1 30405U 99025ADU 25359.94745072  .00003997  00000+0  15743-2 0  9998", "line2": "2 30405  98.7927  94.0442 0050777 116.2230 305.6404 14.29021708975849"}}, "geometry": {"type": "Point", "coordinates": [132.9341293723587, -75.93083367415394]}}, {"type": "Feature", "properties": {"norad_id": 30406, "name": "FENGYUN 1C DEB", "group": "fengyun-1c-debris", "lat": -13.700741147347406, "lon": -108.18138629091958, "alt_km": 848.1309775003747, "timestamp": "2025-12-26T16:33:55.847827+00:00", "meta": {"OBJECT_NAME": "FENGYUN 1C DEB", "OBJECT_ID": "1999-025ADV", "EPOCH": "2025-12-25T16:02:12.712416", "MEAN_MOTION": 13.59264287, "ECCENTRICITY": 0.0282863, "INCLINATION": 98.6211, "RA_OF_ASC_NODE": 248.7986, "ARG_OF_PERICENTER": 326.4016, "MEAN_ANOMALY": 60.1601, "EPHEMERIS_TYPE": 0, "CLASSIFICATION_TYPE": "U", "NORAD_CAT_ID": 30406, "ELEMENT_SET_NO": 999, "REV_AT_EPOCH": 93342, "BSTAR": 0.0021391, "MEAN_MOTION_DOT": 2.013e-05, "MEAN_MOTION_DDOT": 0}, "tle": {"line1": "1 30406U 99025ADV 25359.66820269  .00002013  00000+0  21391-2 0  9994", "line2": "2 30406  98.6211 248.7986 0282863 326.4016  60.1601 13.59264287933429"}}, "geometry": {"type": "Point", "coordinates": [-108.18138629091958, -13.700741147347406]}}, {"type": "Feature", "properties": {"norad_id": 30409, "name": "FENGYUN 1C DEB", "group": "fengyun-1c-debris", "lat": 20.58966262373558, "lon": 170.3489801407532, "alt_km": 998.9980808733108, "timestamp": "2025-12-26T16:33:55.847836+00:00", "meta": {"OBJECT_NAME": "FENGYUN 1C DEB", "OBJECT_ID": "1999-025ADY", "EPOCH": "2025-12-25T22:57:13.684896", "MEAN_MOTION": 14.03774006, "ECCENTRICITY": 0.0167297, "INCLINATION": 98.4743, "RA_OF_ASC_NODE": 346.4538, "ARG_OF_PERICENTER": 328.37, "MEAN_ANOMALY": 84.7677, "EPHEMERIS_TYPE": 0, "CLASSIFICATION_TYPE": "U", "NORAD_CAT_ID": 30409, "ELEMENT_SET_NO": 999, "REV_AT_EPOCH": 96615, "BSTAR": 0.00080905, "MEAN_MOTION_DOT": 1.401e-05, "MEAN_MOTION_DDOT": 0}, "tle": {"line1": "1 30409U 99025ADY 25359.95640839  .00001401  00000+0  80905-3 0  9999", "line2": "2 30409  98.4743 346.4538 0167297 328.3700  84.7677 14.03774006966159"}}, "geometry": {"type": "Point", "coordinates": [170.3489801407532, 20.58966262373558]}}]}